CCSDS_OMM_VERS = 2.0
CREATION_DATE  = 
ORIGINATOR     = 

OBJECT_NAME    = STARLINK-36237
OBJECT_ID      = 2026-059S
CENTER_NAME    = EARTH
REF_FRAME      = TEME
TIME_SYSTEM    = UTC
MEAN_ELEMENT_THEORY = SGP/SGP4

EPOCH          = 2026-04-03T06:33:31.739328
MEAN_MOTION    = 15.80915364
ECCENTRICITY   = .00016356
INCLINATION    = 53.1598
RA_OF_ASC_NODE = 239.5459
ARG_OF_PERICENTER = 33.7337
MEAN_ANOMALY   = 326.3789

EPHEMERIS_TYPE = 0
CLASSIFICATION_TYPE = U
NORAD_CAT_ID   = 68337
ELEMENT_SET_NO = 999
REV_AT_EPOCH   = 186
BSTAR          = .21848461E-2
MEAN_MOTION_DOT = .454907E-2
MEAN_MOTION_DDOT = 0

CCSDS_OMM_VERS = 2.0
CREATION_DATE  = 
ORIGINATOR     = 

OBJECT_NAME    = STARLINK-36254
OBJECT_ID      = 2026-059T
CENTER_NAME    = EARTH
REF_FRAME      = TEME
TIME_SYSTEM    = UTC
MEAN_ELEMENT_THEORY = SGP/SGP4

EPOCH          = 2026-04-03T05:00:18.168768
MEAN_MOTION    = 15.81025058
ECCENTRICITY   = .00001931
INCLINATION    = 53.1600
RA_OF_ASC_NODE = 239.8528
ARG_OF_PERICENTER = 119.3399
MEAN_ANOMALY   = 240.7643

EPHEMERIS_TYPE = 0
CLASSIFICATION_TYPE = U
NORAD_CAT_ID   = 68338
ELEMENT_SET_NO = 999
REV_AT_EPOCH   = 185
BSTAR          = .19025909E-2
MEAN_MOTION_DOT = .395322E-2
MEAN_MOTION_DDOT = 0

CCSDS_OMM_VERS = 2.0
CREATION_DATE  = 
ORIGINATOR     = 

OBJECT_NAME    = STARLINK-37200
OBJECT_ID      = 2026-059U
CENTER_NAME    = EARTH
REF_FRAME      = TEME
TIME_SYSTEM    = UTC
MEAN_ELEMENT_THEORY = SGP/SGP4

EPOCH          = 2026-04-03T06:32:26.129760
MEAN_MOTION    = 15.80889045
ECCENTRICITY   = .00005745
INCLINATION    = 53.1607
RA_OF_ASC_NODE = 239.5413
ARG_OF_PERICENTER = 95.7156
MEAN_ANOMALY   = 264.3933

EPHEMERIS_TYPE = 0
CLASSIFICATION_TYPE = U
NORAD_CAT_ID   = 68339
ELEMENT_SET_NO = 999
REV_AT_EPOCH   = 186
BSTAR          = .60581984E-3
MEAN_MOTION_DOT = .120642E-2
MEAN_MOTION_DDOT = 0

CCSDS_OMM_VERS = 2.0
CREATION_DATE  = 
ORIGINATOR     = 

OBJECT_NAME    = STARLINK-37185
OBJECT_ID      = 2026-059V
CENTER_NAME    = EARTH
REF_FRAME      = TEME
TIME_SYSTEM    = UTC
MEAN_ELEMENT_THEORY = SGP/SGP4

EPOCH          = 2026-04-03T06:30:17.429184
MEAN_MOTION    = 15.80913802
ECCENTRICITY   = .00015194
INCLINATION    = 53.1604
RA_OF_ASC_NODE = 239.5325
ARG_OF_PERICENTER = 353.0255
MEAN_ANOMALY   = 7.0747

EPHEMERIS_TYPE = 0
CLASSIFICATION_TYPE = U
NORAD_CAT_ID   = 68340
ELEMENT_SET_NO = 999
REV_AT_EPOCH   = 186
BSTAR          = .14013756E-2
MEAN_MOTION_DOT = .285771E-2
MEAN_MOTION_DDOT = 0

CCSDS_OMM_VERS = 2.0
CREATION_DATE  = 
ORIGINATOR     = 

OBJECT_NAME    = STARLINK-37181
OBJECT_ID      = 2026-059W
CENTER_NAME    = EARTH
REF_FRAME      = TEME
TIME_SYSTEM    = UTC
MEAN_ELEMENT_THEORY = SGP/SGP4

EPOCH          = 2026-04-03T06:29:11.104224
MEAN_MOTION    = 15.80835887
ECCENTRICITY   = .0001168
INCLINATION    = 53.1599
RA_OF_ASC_NODE = 239.5255
ARG_OF_PERICENTER = 23.2843
MEAN_ANOMALY   = 336.8233

EPHEMERIS_TYPE = 0
CLASSIFICATION_TYPE = U
NORAD_CAT_ID   = 68341
ELEMENT_SET_NO = 999
REV_AT_EPOCH   = 186
BSTAR          = .51087711E-3
MEAN_MOTION_DOT = .101146E-2
MEAN_MOTION_DDOT = 0

CCSDS_OMM_VERS = 2.0
CREATION_DATE  = 
ORIGINATOR     = 

OBJECT_NAME    = STARLINK-37192
OBJECT_ID      = 2026-059X
CENTER_NAME    = EARTH
REF_FRAME      = TEME
TIME_SYSTEM    = UTC
MEAN_ELEMENT_THEORY = SGP/SGP4

EPOCH          = 2026-04-03T06:27:01.699488
MEAN_MOTION    = 15.80754318
ECCENTRICITY   = .00008711
INCLINATION    = 53.1597
RA_OF_ASC_NODE = 239.5157
ARG_OF_PERICENTER = 21.3618
MEAN_ANOMALY   = 338.7441

EPHEMERIS_TYPE = 0
CLASSIFICATION_TYPE = U
NORAD_CAT_ID   = 68342
ELEMENT_SET_NO = 999
REV_AT_EPOCH   = 186
BSTAR          = .14700935E-2
MEAN_MOTION_DOT = .298061E-2
MEAN_MOTION_DDOT = 0

CCSDS_OMM_VERS = 2.0
CREATION_DATE  = 
ORIGINATOR     = 

OBJECT_NAME    = STARLINK-37158
OBJECT_ID      = 2026-059Y
CENTER_NAME    = EARTH
REF_FRAME      = TEME
TIME_SYSTEM    = UTC
MEAN_ELEMENT_THEORY = SGP/SGP4

EPOCH          = 2026-04-03T06:25:57.900000
MEAN_MOTION    = 15.80889498
ECCENTRICITY   = .00011764
INCLINATION    = 53.1599
RA_OF_ASC_NODE = 239.5104
ARG_OF_PERICENTER = 54.9183
MEAN_ANOMALY   = 305.1949

EPHEMERIS_TYPE = 0
CLASSIFICATION_TYPE = U
NORAD_CAT_ID   = 68343
ELEMENT_SET_NO = 999
REV_AT_EPOCH   = 186
BSTAR          = .11885285E-2
MEAN_MOTION_DOT = .240715E-2
MEAN_MOTION_DDOT = 0

CCSDS_OMM_VERS = 2.0
CREATION_DATE  = 
ORIGINATOR     = 

OBJECT_NAME    = STARLINK-36380
OBJECT_ID      = 2026-059Z
CENTER_NAME    = EARTH
REF_FRAME      = TEME
TIME_SYSTEM    = UTC
MEAN_ELEMENT_THEORY = SGP/SGP4

EPOCH          = 2026-04-02T19:50:51.209376
MEAN_MOTION    = 15.81091474
ECCENTRICITY   = .00010906
INCLINATION    = 53.1613
RA_OF_ASC_NODE = 241.7392
ARG_OF_PERICENTER = 4.1712
MEAN_ANOMALY   = 355.9320

EPHEMERIS_TYPE = 0
CLASSIFICATION_TYPE = U
NORAD_CAT_ID   = 68344
ELEMENT_SET_NO = 999
REV_AT_EPOCH   = 179
BSTAR          = .23468165E-2
MEAN_MOTION_DOT = .495013E-2
MEAN_MOTION_DDOT = 0

CCSDS_OMM_VERS = 2.0
CREATION_DATE  = 
ORIGINATOR     = 

OBJECT_NAME    = STARLINK-37214
OBJECT_ID      = 2026-059AA
CENTER_NAME    = EARTH
REF_FRAME      = TEME
TIME_SYSTEM    = UTC
MEAN_ELEMENT_THEORY = SGP/SGP4

EPOCH          = 2026-04-02T18:15:28.088928
MEAN_MOTION    = 15.81140701
ECCENTRICITY   = .00017141
INCLINATION    = 53.1591
RA_OF_ASC_NODE = 242.0379
ARG_OF_PERICENTER = 330.3993
MEAN_ANOMALY   = 29.6933

EPHEMERIS_TYPE = 0
CLASSIFICATION_TYPE = U
NORAD_CAT_ID   = 68345
ELEMENT_SET_NO = 999
REV_AT_EPOCH   = 178
BSTAR          = -.23111167E-2
MEAN_MOTION_DOT = -.439887E-2
MEAN_MOTION_DDOT = 0

CCSDS_OMM_VERS = 2.0
CREATION_DATE  = 
ORIGINATOR     = 

OBJECT_NAME    = STARLINK-37169
OBJECT_ID      = 2026-059AB
CENTER_NAME    = EARTH
REF_FRAME      = TEME
TIME_SYSTEM    = UTC
MEAN_ELEMENT_THEORY = SGP/SGP4

EPOCH          = 2026-04-03T06:22:41.823840
MEAN_MOTION    = 15.80893519
ECCENTRICITY   = .00012588
INCLINATION    = 53.1606
RA_OF_ASC_NODE = 239.4950
ARG_OF_PERICENTER = 177.9211
MEAN_ANOMALY   = 182.1818

EPHEMERIS_TYPE = 0
CLASSIFICATION_TYPE = U
NORAD_CAT_ID   = 68346
ELEMENT_SET_NO = 999
REV_AT_EPOCH   = 186
BSTAR          = .85190122E-3
MEAN_MOTION_DOT = .170969E-2
MEAN_MOTION_DDOT = 0

CCSDS_OMM_VERS = 2.0
CREATION_DATE  = 
ORIGINATOR     = 

OBJECT_NAME    = STARLINK-37136
OBJECT_ID      = 2026-059AC
CENTER_NAME    = EARTH
REF_FRAME      = TEME
TIME_SYSTEM    = UTC
MEAN_ELEMENT_THEORY = SGP/SGP4

EPOCH          = 2026-04-03T06:21:36.903744
MEAN_MOTION    = 15.80923940
ECCENTRICITY   = .00005122
INCLINATION    = 53.1592
RA_OF_ASC_NODE = 239.4897
ARG_OF_PERICENTER = 53.3467
MEAN_ANOMALY   = 306.7602

EPHEMERIS_TYPE = 0
CLASSIFICATION_TYPE = U
NORAD_CAT_ID   = 68347
ELEMENT_SET_NO = 999
REV_AT_EPOCH   = 186
BSTAR          = .1088099E-2
MEAN_MOTION_DOT = .22014E-2
MEAN_MOTION_DDOT = 0

CCSDS_OMM_VERS = 2.0
CREATION_DATE  = 
ORIGINATOR     = 

OBJECT_NAME    = STARLINK-37182
OBJECT_ID      = 2026-059AD
CENTER_NAME    = EARTH
REF_FRAME      = TEME
TIME_SYSTEM    = UTC
MEAN_ELEMENT_THEORY = SGP/SGP4

EPOCH          = 2026-04-03T06:24:53.056800
MEAN_MOTION    = 15.80919383
ECCENTRICITY   = .00009795
INCLINATION    = 53.1596
RA_OF_ASC_NODE = 239.5050
ARG_OF_PERICENTER = 357.6257
MEAN_ANOMALY   = 2.4761

EPHEMERIS_TYPE = 0
CLASSIFICATION_TYPE = U
NORAD_CAT_ID   = 68348
ELEMENT_SET_NO = 999
REV_AT_EPOCH   = 186
BSTAR          = .17628294E-2
MEAN_MOTION_DOT = .363039E-2
MEAN_MOTION_DDOT = 0

