STARLINK-36237          
1 68337U 26059S   26093.27328402  .00454907  00000+0  21848-2 0  9990
2 68337  53.1598 239.5459 0001635  33.7337 326.3789 15.80915364  1863
STARLINK-36254          
1 68338U 26059T   26093.20854362  .00395322  00000+0  19026-2 0  9993
2 68338  53.1600 239.8528 0000193 119.3399 240.7643 15.81025058  1855
STARLINK-37200          
1 68339U 26059U   26093.27252465  .00120642  00000+0  60582-3 0  9992
2 68339  53.1607 239.5413 0000574  95.7156 264.3933 15.80889045  1862
STARLINK-37185          
1 68340U 26059V   26093.27103506  .00285771  00000+0  14014-2 0  9998
2 68340  53.1604 239.5325 0001519 353.0255   7.0747 15.80913802  1867
STARLINK-37181          
1 68341U 26059W   26093.27026741  .00101146  00000+0  51088-3 0  9990
2 68341  53.1599 239.5255 0001168  23.2843 336.8233 15.80835887  1861
STARLINK-37192          
1 68342U 26059X   26093.26876967  .00298061  00000+0  14701-2 0  9996
2 68342  53.1597 239.5157 0000871  21.3618 338.7441 15.80754318  1861
STARLINK-37158          
1 68343U 26059Y   26093.26803125  .00240715  00000+0  11885-2 0  9996
2 68343  53.1599 239.5104 0001176  54.9183 305.1949 15.80889498  1863
STARLINK-36380          
1 68344U 26059Z   26092.82698159  .00495013  00000+0  23468-2 0  9990
2 68344  53.1613 241.7392 0001090   4.1712 355.9320 15.81091474  1793
STARLINK-37214          
1 68345U 26059AA  26092.76074177 -.00439887  00000+0 -23111-2 0  9996
2 68345  53.1591 242.0379 0001714 330.3993  29.6933 15.81140701  1788
STARLINK-37169          
1 68346U 26059AB  26093.26576185  .00170969  00000+0  85190-3 0  9996
2 68346  53.1606 239.4950 0001258 177.9211 182.1818 15.80893519  1869
STARLINK-37136          
1 68347U 26059AC  26093.26501046  .00220140  00000+0  10881-2 0  9992
2 68347  53.1592 239.4897 0000512  53.3467 306.7602 15.80923940  1863
STARLINK-37182          
1 68348U 26059AD  26093.26728075  .00363039  00000+0  17628-2 0  9997
2 68348  53.1596 239.5050 0000979 357.6257   2.4761 15.80919383  1866
